[{"OBJECT_NAME":"FLOCK 4G-24","OBJECT_ID":"2025-009AE","EPOCH":"2026-03-09T17:24:07.838208","MEAN_MOTION":15.27784978,"ECCENTRICITY":0.0001802,"INCLINATION":97.4061,"RA_OF_ASC_NODE":151.514,"ARG_OF_PERICENTER":280.2808,"MEAN_ANOMALY":79.8228,"EPHEMERIS_TYPE":0,"CLASSIFICATION_TYPE":"U","NORAD_CAT_ID":62637,"ELEMENT_SET_NO":999,"REV_AT_EPOCH":6373,"BSTAR":0.00038996067,"MEAN_MOTION_DOT":0.00010513,"MEAN_MOTION_DDOT":0},{"OBJECT_NAME":"STARLINK-36466","OBJECT_ID":"2026-003AA","EPOCH":"2026-03-09T11:18:12.521664","MEAN_MOTION":15.27560079,"ECCENTRICITY":0.00013387,"INCLINATION":43.0005,"RA_OF_ASC_NODE":228.0147,"ARG_OF_PERICENTER":282.9558,"MEAN_ANOMALY":77.1145,"EPHEMERIS_TYPE":0,"CLASSIFICATION_TYPE":"U","NORAD_CAT_ID":67358,"ELEMENT_SET_NO":999,"REV_AT_EPOCH":879,"BSTAR":0.00096967921,"MEAN_MOTION_DOT":0.00026501,"MEAN_MOTION_DDOT":0}]
