FLOCK 4G-24             
1 62637U 25009AE  26068.72509072  .00010513  00000+0  38996-3 0  9991
2 62637  97.4061 151.5140 0001802 280.2808  79.8228 15.27784978 63732
STARLINK-36466          
1 67358U 26003AA  26068.47097826  .00026501  00000+0  96968-3 0  9999
2 67358  43.0005 228.0147 0001338 282.9558  77.1145 15.27560079  8792
